ONEWEB-0415             
1 51624U 22012C   25331.80767038  .00000133  00000+0  34551-3 0  9995
2 51624  87.8806  76.4128 0001631  94.8380 265.2934 13.10376152182919
ONEWEB-0416             
1 51625U 22012D   25331.81929990  .00000686  00000+0  19285-2 0  9993
2 51625  87.8809  76.4312 0001575 102.1209 258.0095 13.10373840182951
ONEWEB-0422             
1 51626U 22012E   25331.92061729  .00000075  00000+0  15997-3 0  9992
2 51626  87.9135  45.8683 0002490 100.5360 259.6053 13.17648610187305
ONEWEB-0423             
1 51627U 22012F   25331.91386717 -.00000006  00000+0 -49051-4 0  9994
2 51627  87.9132  45.8798 0001877 104.7440 255.3900 13.17648058187190
ONEWEB-0425             
1 51628U 22012G   25331.82925802  .00000639  00000+0  17929-2 0  9996
2 51628  87.8812  76.3997 0001510 116.2028 243.9255 13.10370862182952
ONEWEB-0428             
1 51629U 22012H   25331.80932528  .00000121  00000+0  30920-3 0  9991
2 51629  87.8808  76.4231 0001743 106.5688 253.5631 13.10379522182915
ONEWEB-0431             
1 51630U 22012J   25331.85565482 -.00000500  00000+0 -14691-2 0  9998
2 51630  87.8817  76.3931 0001893  82.9883 277.1460 13.10370426182975
ONEWEB-0434             
1 51631U 22012K   25331.98528961  .00000543  00000+0  15191-2 0  9995
2 51631  87.8808  76.4038 0001536 126.7373 233.3896 13.10370993182976
ONEWEB-0435             
1 51632U 22012L   25331.84086971  .00000179  00000+0  47527-3 0  9995
2 51632  87.8804  76.4225 0002102 102.8462 257.2900 13.10368970182945
ONEWEB-0436             
1 51633U 22012M   25331.90542989  .00000029  00000+0  42046-4 0  9995
2 51633  87.9133  45.8598 0001982  98.1420 261.9937 13.17648629187172
ONEWEB-0438             
1 51634U 22012N   25331.82426581  .00001732  00000+0  49241-2 0  9990
2 51634  87.8806  76.4265 0001593 108.6031 251.5270 13.10382062182970
ONEWEB-0439             
1 51635U 22012P   25331.82760208  .00000658  00000+0  18486-2 0  9991
2 51635  87.8804  76.4147 0001727 105.3179 254.8139 13.10371796182954
ONEWEB-0442             
1 51636U 22012Q   25331.97376986 -.00000023  00000+0 -91997-4 0  9992
2 51636  87.9123  45.8949 0001277 116.6887 243.4376 13.17648198187177
ONEWEB-0443             
1 51637U 22012R   25331.91724045  .00000015  00000+0  44815-5 0  9997
2 51637  87.9120  45.9123 0001852 112.2381 247.8948 13.17648111187213
ONEWEB-0444             
1 51638U 22012S   25331.81763212  .00000658  00000+0  18485-2 0  9990
2 51638  87.8806  76.4153 0001698 104.0342 256.0975 13.10376878182960
ONEWEB-0445             
1 51639U 22012T   25331.99192924  .00000246  00000+0  66718-3 0  9992
2 51639  87.8820  76.3458 0001502 100.8876 259.2420 13.10369740182997
ONEWEB-0446             
1 51640U 22012U   25331.81599654  .00000546  00000+0  15290-2 0  9997
2 51640  87.8807  76.4327 0001561  99.7183 260.4120 13.10375674182952
