[{"OBJECT_NAME":"ONEWEB-0415","OBJECT_ID":"2022-012C","EPOCH":"2025-11-27T19:23:02.720832","MEAN_MOTION":13.10376152,"ECCENTRICITY":0.00016311,"INCLINATION":87.8806,"RA_OF_ASC_NODE":76.4128,"ARG_OF_PERICENTER":94.838,"MEAN_ANOMALY":265.2934,"EPHEMERIS_TYPE":0,"CLASSIFICATION_TYPE":"U","NORAD_CAT_ID":51624,"ELEMENT_SET_NO":999,"REV_AT_EPOCH":18291,"BSTAR":0.00034551275,"MEAN_MOTION_DOT":1.33e-6,"MEAN_MOTION_DDOT":0},{"OBJECT_NAME":"ONEWEB-0416","OBJECT_ID":"2022-012D","EPOCH":"2025-11-27T19:39:47.511360","MEAN_MOTION":13.1037384,"ECCENTRICITY":0.0001575,"INCLINATION":87.8809,"RA_OF_ASC_NODE":76.4312,"ARG_OF_PERICENTER":102.1209,"MEAN_ANOMALY":258.0095,"EPHEMERIS_TYPE":0,"CLASSIFICATION_TYPE":"U","NORAD_CAT_ID":51625,"ELEMENT_SET_NO":999,"REV_AT_EPOCH":18295,"BSTAR":0.0019284642,"MEAN_MOTION_DOT":6.86e-6,"MEAN_MOTION_DDOT":0},{"OBJECT_NAME":"ONEWEB-0422","OBJECT_ID":"2022-012E","EPOCH":"2025-11-27T22:05:41.333856","MEAN_MOTION":13.1764861,"ECCENTRICITY":0.00024901,"INCLINATION":87.9135,"RA_OF_ASC_NODE":45.8683,"ARG_OF_PERICENTER":100.536,"MEAN_ANOMALY":259.6053,"EPHEMERIS_TYPE":0,"CLASSIFICATION_TYPE":"U","NORAD_CAT_ID":51626,"ELEMENT_SET_NO":999,"REV_AT_EPOCH":18730,"BSTAR":0.0001599716,"MEAN_MOTION_DOT":7.5e-7,"MEAN_MOTION_DDOT":0},{"OBJECT_NAME":"ONEWEB-0423","OBJECT_ID":"2022-012F","EPOCH":"2025-11-27T21:55:58.123488","MEAN_MOTION":13.17648058,"ECCENTRICITY":0.0001877,"INCLINATION":87.9132,"RA_OF_ASC_NODE":45.8798,"ARG_OF_PERICENTER":104.744,"MEAN_ANOMALY":255.39,"EPHEMERIS_TYPE":0,"CLASSIFICATION_TYPE":"U","NORAD_CAT_ID":51627,"ELEMENT_SET_NO":999,"REV_AT_EPOCH":18719,"BSTAR":-4.9051312e-5,"MEAN_MOTION_DOT":-6.0e-8,"MEAN_MOTION_DDOT":0},{"OBJECT_NAME":"ONEWEB-0425","OBJECT_ID":"2022-012G","EPOCH":"2025-11-27T19:54:07.892928","MEAN_MOTION":13.10370862,"ECCENTRICITY":0.00015108,"INCLINATION":87.8812,"RA_OF_ASC_NODE":76.3997,"ARG_OF_PERICENTER":116.2028,"MEAN_ANOMALY":243.9255,"EPHEMERIS_TYPE":0,"CLASSIFICATION_TYPE":"U","NORAD_CAT_ID":51628,"ELEMENT_SET_NO":999,"REV_AT_EPOCH":18295,"BSTAR":0.001792933,"MEAN_MOTION_DOT":6.39e-6,"MEAN_MOTION_DDOT":0},{"OBJECT_NAME":"ONEWEB-0428","OBJECT_ID":"2022-012H","EPOCH":"2025-11-27T19:25:25.704192","MEAN_MOTION":13.10379522,"ECCENTRICITY":0.00017432,"INCLINATION":87.8808,"RA_OF_ASC_NODE":76.4231,"ARG_OF_PERICENTER":106.5688,"MEAN_ANOMALY":253.5631,"EPHEMERIS_TYPE":0,"CLASSIFICATION_TYPE":"U","NORAD_CAT_ID":51629,"ELEMENT_SET_NO":999,"REV_AT_EPOCH":18291,"BSTAR":0.00030919569,"MEAN_MOTION_DOT":1.21e-6,"MEAN_MOTION_DDOT":0},{"OBJECT_NAME":"ONEWEB-0431","OBJECT_ID":"2022-012J","EPOCH":"2025-11-27T20:32:08.576448","MEAN_MOTION":13.10370426,"ECCENTRICITY":0.00018936,"INCLINATION":87.8817,"RA_OF_ASC_NODE":76.3931,"ARG_OF_PERICENTER":82.9883,"MEAN_ANOMALY":277.146,"EPHEMERIS_TYPE":0,"CLASSIFICATION_TYPE":"U","NORAD_CAT_ID":51630,"ELEMENT_SET_NO":999,"REV_AT_EPOCH":18297,"BSTAR":-0.0014691119,"MEAN_MOTION_DOT":-5.0e-6,"MEAN_MOTION_DDOT":0},{"OBJECT_NAME":"ONEWEB-0434","OBJECT_ID":"2022-012K","EPOCH":"2025-11-27T23:38:49.022304","MEAN_MOTION":13.10370993,"ECCENTRICITY":0.00015367,"INCLINATION":87.8808,"RA_OF_ASC_NODE":76.4038,"ARG_OF_PERICENTER":126.7373,"MEAN_ANOMALY":233.3896,"EPHEMERIS_TYPE":0,"CLASSIFICATION_TYPE":"U","NORAD_CAT_ID":51631,"ELEMENT_SET_NO":999,"REV_AT_EPOCH":18297,"BSTAR":0.0015190754,"MEAN_MOTION_DOT":5.43e-6,"MEAN_MOTION_DDOT":0},{"OBJECT_NAME":"ONEWEB-0435","OBJECT_ID":"2022-012L","EPOCH":"2025-11-27T20:10:51.142944","MEAN_MOTION":13.1036897,"ECCENTRICITY":0.00021021,"INCLINATION":87.8804,"RA_OF_ASC_NODE":76.4225,"ARG_OF_PERICENTER":102.8462,"MEAN_ANOMALY":257.29,"EPHEMERIS_TYPE":0,"CLASSIFICATION_TYPE":"U","NORAD_CAT_ID":51632,"ELEMENT_SET_NO":999,"REV_AT_EPOCH":18294,"BSTAR":0.00047527279,"MEAN_MOTION_DOT":1.79e-6,"MEAN_MOTION_DDOT":0},{"OBJECT_NAME":"ONEWEB-0436","OBJECT_ID":"2022-012M","EPOCH":"2025-11-27T21:43:49.142496","MEAN_MOTION":13.17648629,"ECCENTRICITY":0.0001982,"INCLINATION":87.9133,"RA_OF_ASC_NODE":45.8598,"ARG_OF_PERICENTER":98.142,"MEAN_ANOMALY":261.9937,"EPHEMERIS_TYPE":0,"CLASSIFICATION_TYPE":"U","NORAD_CAT_ID":51633,"ELEMENT_SET_NO":999,"REV_AT_EPOCH":18717,"BSTAR":4.2045571e-5,"MEAN_MOTION_DOT":2.9e-7,"MEAN_MOTION_DDOT":0},{"OBJECT_NAME":"ONEWEB-0438","OBJECT_ID":"2022-012N","EPOCH":"2025-11-27T19:46:56.565984","MEAN_MOTION":13.10382062,"ECCENTRICITY":0.0001593,"INCLINATION":87.8806,"RA_OF_ASC_NODE":76.4265,"ARG_OF_PERICENTER":108.6031,"MEAN_ANOMALY":251.527,"EPHEMERIS_TYPE":0,"CLASSIFICATION_TYPE":"U","NORAD_CAT_ID":51634,"ELEMENT_SET_NO":999,"REV_AT_EPOCH":18297,"BSTAR":0.0049240721,"MEAN_MOTION_DOT":1.732e-5,"MEAN_MOTION_DDOT":0},{"OBJECT_NAME":"ONEWEB-0439","OBJECT_ID":"2022-012P","EPOCH":"2025-11-27T19:51:44.819712","MEAN_MOTION":13.10371796,"ECCENTRICITY":0.00017272,"INCLINATION":87.8804,"RA_OF_ASC_NODE":76.4147,"ARG_OF_PERICENTER":105.3179,"MEAN_ANOMALY":254.8139,"EPHEMERIS_TYPE":0,"CLASSIFICATION_TYPE":"U","NORAD_CAT_ID":51635,"ELEMENT_SET_NO":999,"REV_AT_EPOCH":18295,"BSTAR":0.0018485558,"MEAN_MOTION_DOT":6.58e-6,"MEAN_MOTION_DDOT":0},{"OBJECT_NAME":"ONEWEB-0442","OBJECT_ID":"2022-012Q","EPOCH":"2025-11-27T23:22:13.715904","MEAN_MOTION":13.17648198,"ECCENTRICITY":0.00012776,"INCLINATION":87.9123,"RA_OF_ASC_NODE":45.8949,"ARG_OF_PERICENTER":116.6887,"MEAN_ANOMALY":243.4376,"EPHEMERIS_TYPE":0,"CLASSIFICATION_TYPE":"U","NORAD_CAT_ID":51636,"ELEMENT_SET_NO":999,"REV_AT_EPOCH":18717,"BSTAR":-9.1996794e-5,"MEAN_MOTION_DOT":-2.3e-7,"MEAN_MOTION_DDOT":0},{"OBJECT_NAME":"ONEWEB-0443","OBJECT_ID":"2022-012R","EPOCH":"2025-11-27T22:00:49.574880","MEAN_MOTION":13.17648111,"ECCENTRICITY":0.00018525,"INCLINATION":87.912,"RA_OF_ASC_NODE":45.9123,"ARG_OF_PERICENTER":112.2381,"MEAN_ANOMALY":247.8948,"EPHEMERIS_TYPE":0,"CLASSIFICATION_TYPE":"U","NORAD_CAT_ID":51637,"ELEMENT_SET_NO":999,"REV_AT_EPOCH":18721,"BSTAR":4.481509e-6,"MEAN_MOTION_DOT":1.5e-7,"MEAN_MOTION_DDOT":0},{"OBJECT_NAME":"ONEWEB-0444","OBJECT_ID":"2022-012S","EPOCH":"2025-11-27T19:37:23.415168","MEAN_MOTION":13.10376878,"ECCENTRICITY":0.00016987,"INCLINATION":87.8806,"RA_OF_ASC_NODE":76.4153,"ARG_OF_PERICENTER":104.0342,"MEAN_ANOMALY":256.0975,"EPHEMERIS_TYPE":0,"CLASSIFICATION_TYPE":"U","NORAD_CAT_ID":51638,"ELEMENT_SET_NO":999,"REV_AT_EPOCH":18296,"BSTAR":0.0018485101,"MEAN_MOTION_DOT":6.58e-6,"MEAN_MOTION_DDOT":0},{"OBJECT_NAME":"ONEWEB-0445","OBJECT_ID":"2022-012T","EPOCH":"2025-11-27T23:48:22.686336","MEAN_MOTION":13.1036974,"ECCENTRICITY":0.00015028,"INCLINATION":87.882,"RA_OF_ASC_NODE":76.3458,"ARG_OF_PERICENTER":100.8876,"MEAN_ANOMALY":259.242,"EPHEMERIS_TYPE":0,"CLASSIFICATION_TYPE":"U","NORAD_CAT_ID":51639,"ELEMENT_SET_NO":999,"REV_AT_EPOCH":18299,"BSTAR":0.00066718064,"MEAN_MOTION_DOT":2.46e-6,"MEAN_MOTION_DDOT":0},{"OBJECT_NAME":"ONEWEB-0446","OBJECT_ID":"2022-012U","EPOCH":"2025-11-27T19:35:02.101056","MEAN_MOTION":13.10375674,"ECCENTRICITY":0.00015615,"INCLINATION":87.8807,"RA_OF_ASC_NODE":76.4327,"ARG_OF_PERICENTER":99.7183,"MEAN_ANOMALY":260.412,"EPHEMERIS_TYPE":0,"CLASSIFICATION_TYPE":"U","NORAD_CAT_ID":51640,"ELEMENT_SET_NO":999,"REV_AT_EPOCH":18295,"BSTAR":0.0015289669,"MEAN_MOTION_DOT":5.46e-6,"MEAN_MOTION_DDOT":0}]
